STARLINK-1159
1 25057C 20006P   21325.11791125  .00000680  00000-0  45551-4 0  3250
2 25057  53.0513 132.6964 0001496  76.7478 314.3050 15.06382114    18
